SL-3 R/B                
1 13403U 82079B   26012.28133772  .00005844  00000+0  23797-3 0  9992
2 13403  81.1463 259.6515 0025549 359.8091   0.3127 15.24013254369108
SL-14 R/B               
1 13553U 82092B   26012.30806707  .00000536  00000+0  57425-4 0  9990
2 13553  82.5668 194.1217 0021586 125.8564 301.8514 14.86591929320553
SL-3 R/B                
1 13819U 83010B   26012.23304045  .00014147  00000+0  30374-3 0  9992
2 13819  81.1035  71.3712 0016232 240.8908 119.0711 15.44425741349225
SL-3 R/B                
1 14208U 83075B   26012.26608729  .00011131  00000+0  30796-3 0  9993
2 14208  97.6118  14.7918 0024427  73.1635 287.2285 15.36883540321488
COSMOS 1536             
1 14699U 84013A   26011.90324088  .00007207  00000+0  30440-3 0  9998
2 14699  82.5457 164.2412 0015579 120.0756 240.2028 15.22977684263976
SL-14 R/B               
1 14820U 84027B   26012.26319773  .00000492  00000+0  53505-4 0  9991
2 14820  82.5432 297.9346 0018515 155.6933 204.5161 14.85913360239253
SL-8 R/B                
1 15483U 85006B   26012.30585250  .00000299  00000+0  10803-3 0  9993
2 15483  74.0463   4.8938 0019744 291.9176 170.5410 14.37744648145926
SL-12 R/B(2)            
1 15772U 85042D   26012.00506596  .00000107  00000+0  69487-4 0  9998
2 15772  71.1063 207.4819 0036548 216.7591 255.1722 14.21961803106332
SL-14 R/B               
1 15945U 85069B   26012.13048693  .00000469  00000+0  50306-4 0  9993
2 15945  82.5260  78.1314 0019371  24.2854 335.9271 14.86363397164437
SL-16 R/B               
1 16182U 85097B   26012.15311507  .00000091  00000+0  69418-4 0  9992
2 16182  71.0026 259.5766 0008509 327.3845 144.2068 14.16592162 79222
SL-14 R/B               
1 16496U 86006B   26012.05472635  .00000745  00000+0  76253-4 0  9991
2 16496  82.5288 313.0295 0078271 100.1987 260.8069 14.86719003140796
COSMOS 1743             
1 16719U 86034A   26012.32215931  .00033083  00000+0  50462-3 0  9998
2 16719  82.5348 132.7798 0005234 136.3324 223.8344 15.54282538171489
