CCSDS_OMM_VERS = 2.0
CREATION_DATE  = 
ORIGINATOR     = 

OBJECT_NAME    = SL-3 R/B
OBJECT_ID      = 1982-079B
CENTER_NAME    = EARTH
REF_FRAME      = TEME
TIME_SYSTEM    = UTC
MEAN_ELEMENT_THEORY = SGP/SGP4

EPOCH          = 2026-01-12T06:45:07.579008
MEAN_MOTION    = 15.24013254
ECCENTRICITY   = .00255496
INCLINATION    = 81.1463
RA_OF_ASC_NODE = 259.6515
ARG_OF_PERICENTER = 359.8091
MEAN_ANOMALY   = 0.3127

EPHEMERIS_TYPE = 0
CLASSIFICATION_TYPE = U
NORAD_CAT_ID   = 13403
ELEMENT_SET_NO = 999
REV_AT_EPOCH   = 36910
BSTAR          = .23797048E-3
MEAN_MOTION_DOT = .5844E-4
MEAN_MOTION_DDOT = 0

CCSDS_OMM_VERS = 2.0
CREATION_DATE  = 
ORIGINATOR     = 

OBJECT_NAME    = SL-14 R/B
OBJECT_ID      = 1982-092B
CENTER_NAME    = EARTH
REF_FRAME      = TEME
TIME_SYSTEM    = UTC
MEAN_ELEMENT_THEORY = SGP/SGP4

EPOCH          = 2026-01-12T07:23:36.994848
MEAN_MOTION    = 14.86591929
ECCENTRICITY   = .0021586
INCLINATION    = 82.5668
RA_OF_ASC_NODE = 194.1217
ARG_OF_PERICENTER = 125.8564
MEAN_ANOMALY   = 301.8514

EPHEMERIS_TYPE = 0
CLASSIFICATION_TYPE = U
NORAD_CAT_ID   = 13553
ELEMENT_SET_NO = 999
REV_AT_EPOCH   = 32055
BSTAR          = .5742457E-4
MEAN_MOTION_DOT = .536E-5
MEAN_MOTION_DDOT = 0

CCSDS_OMM_VERS = 2.0
CREATION_DATE  = 
ORIGINATOR     = 

OBJECT_NAME    = SL-3 R/B
OBJECT_ID      = 1983-010B
CENTER_NAME    = EARTH
REF_FRAME      = TEME
TIME_SYSTEM    = UTC
MEAN_ELEMENT_THEORY = SGP/SGP4

EPOCH          = 2026-01-12T05:35:34.694880
MEAN_MOTION    = 15.44425741
ECCENTRICITY   = .00162321
INCLINATION    = 81.1035
RA_OF_ASC_NODE = 71.3712
ARG_OF_PERICENTER = 240.8908
MEAN_ANOMALY   = 119.0711

EPHEMERIS_TYPE = 0
CLASSIFICATION_TYPE = U
NORAD_CAT_ID   = 13819
ELEMENT_SET_NO = 999
REV_AT_EPOCH   = 34922
BSTAR          = .30373506E-3
MEAN_MOTION_DOT = .14147E-3
MEAN_MOTION_DDOT = 0

CCSDS_OMM_VERS = 2.0
CREATION_DATE  = 
ORIGINATOR     = 

OBJECT_NAME    = SL-3 R/B
OBJECT_ID      = 1983-075B
CENTER_NAME    = EARTH
REF_FRAME      = TEME
TIME_SYSTEM    = UTC
MEAN_ELEMENT_THEORY = SGP/SGP4

EPOCH          = 2026-01-12T06:23:09.941856
MEAN_MOTION    = 15.36883540
ECCENTRICITY   = .00244276
INCLINATION    = 97.6118
RA_OF_ASC_NODE = 14.7918
ARG_OF_PERICENTER = 73.1635
MEAN_ANOMALY   = 287.2285

EPHEMERIS_TYPE = 0
CLASSIFICATION_TYPE = U
NORAD_CAT_ID   = 14208
ELEMENT_SET_NO = 999
REV_AT_EPOCH   = 32148
BSTAR          = .30796031E-3
MEAN_MOTION_DOT = .11131E-3
MEAN_MOTION_DDOT = 0

CCSDS_OMM_VERS = 2.0
CREATION_DATE  = 
ORIGINATOR     = 

OBJECT_NAME    = COSMOS 1536
OBJECT_ID      = 1984-013A
CENTER_NAME    = EARTH
REF_FRAME      = TEME
TIME_SYSTEM    = UTC
MEAN_ELEMENT_THEORY = SGP/SGP4

EPOCH          = 2026-01-11T21:40:40.012032
MEAN_MOTION    = 15.22977684
ECCENTRICITY   = .00155791
INCLINATION    = 82.5457
RA_OF_ASC_NODE = 164.2412
ARG_OF_PERICENTER = 120.0756
MEAN_ANOMALY   = 240.2028

EPHEMERIS_TYPE = 0
CLASSIFICATION_TYPE = U
NORAD_CAT_ID   = 14699
ELEMENT_SET_NO = 999
REV_AT_EPOCH   = 26397
BSTAR          = .30439863E-3
MEAN_MOTION_DOT = .7207E-4
MEAN_MOTION_DDOT = 0

CCSDS_OMM_VERS = 2.0
CREATION_DATE  = 
ORIGINATOR     = 

OBJECT_NAME    = SL-14 R/B
OBJECT_ID      = 1984-027B
CENTER_NAME    = EARTH
REF_FRAME      = TEME
TIME_SYSTEM    = UTC
MEAN_ELEMENT_THEORY = SGP/SGP4

EPOCH          = 2026-01-12T06:19:00.283872
MEAN_MOTION    = 14.85913360
ECCENTRICITY   = .00185159
INCLINATION    = 82.5432
RA_OF_ASC_NODE = 297.9346
ARG_OF_PERICENTER = 155.6933
MEAN_ANOMALY   = 204.5161

EPHEMERIS_TYPE = 0
CLASSIFICATION_TYPE = U
NORAD_CAT_ID   = 14820
ELEMENT_SET_NO = 999
REV_AT_EPOCH   = 23925
BSTAR          = .53505214E-4
MEAN_MOTION_DOT = .492E-5
MEAN_MOTION_DDOT = 0

CCSDS_OMM_VERS = 2.0
CREATION_DATE  = 
ORIGINATOR     = 

OBJECT_NAME    = SL-8 R/B
OBJECT_ID      = 1985-006B
CENTER_NAME    = EARTH
REF_FRAME      = TEME
TIME_SYSTEM    = UTC
MEAN_ELEMENT_THEORY = SGP/SGP4

EPOCH          = 2026-01-12T07:20:25.656000
MEAN_MOTION    = 14.37744648
ECCENTRICITY   = .00197448
INCLINATION    = 74.0463
RA_OF_ASC_NODE = 4.8938
ARG_OF_PERICENTER = 291.9176
MEAN_ANOMALY   = 170.5410

EPHEMERIS_TYPE = 0
CLASSIFICATION_TYPE = U
NORAD_CAT_ID   = 15483
ELEMENT_SET_NO = 999
REV_AT_EPOCH   = 14592
BSTAR          = .10802833E-3
MEAN_MOTION_DOT = .299E-5
MEAN_MOTION_DDOT = 0

CCSDS_OMM_VERS = 2.0
CREATION_DATE  = 
ORIGINATOR     = 

OBJECT_NAME    = SL-12 R/B(2)
OBJECT_ID      = 1985-042D
CENTER_NAME    = EARTH
REF_FRAME      = TEME
TIME_SYSTEM    = UTC
MEAN_ELEMENT_THEORY = SGP/SGP4

EPOCH          = 2026-01-12T00:07:17.698944
MEAN_MOTION    = 14.21961803
ECCENTRICITY   = .00365481
INCLINATION    = 71.1063
RA_OF_ASC_NODE = 207.4819
ARG_OF_PERICENTER = 216.7591
MEAN_ANOMALY   = 255.1722

EPHEMERIS_TYPE = 0
CLASSIFICATION_TYPE = U
NORAD_CAT_ID   = 15772
ELEMENT_SET_NO = 999
REV_AT_EPOCH   = 10633
BSTAR          = .6948739E-4
MEAN_MOTION_DOT = .107E-5
MEAN_MOTION_DDOT = 0

CCSDS_OMM_VERS = 2.0
CREATION_DATE  = 
ORIGINATOR     = 

OBJECT_NAME    = SL-14 R/B
OBJECT_ID      = 1985-069B
CENTER_NAME    = EARTH
REF_FRAME      = TEME
TIME_SYSTEM    = UTC
MEAN_ELEMENT_THEORY = SGP/SGP4

EPOCH          = 2026-01-12T03:07:54.070752
MEAN_MOTION    = 14.86363397
ECCENTRICITY   = .00193714
INCLINATION    = 82.5260
RA_OF_ASC_NODE = 78.1314
ARG_OF_PERICENTER = 24.2854
MEAN_ANOMALY   = 335.9271

EPHEMERIS_TYPE = 0
CLASSIFICATION_TYPE = U
NORAD_CAT_ID   = 15945
ELEMENT_SET_NO = 999
REV_AT_EPOCH   = 16443
BSTAR          = .50306205E-4
MEAN_MOTION_DOT = .469E-5
MEAN_MOTION_DDOT = 0

CCSDS_OMM_VERS = 2.0
CREATION_DATE  = 
ORIGINATOR     = 

OBJECT_NAME    = SL-16 R/B
OBJECT_ID      = 1985-097B
CENTER_NAME    = EARTH
REF_FRAME      = TEME
TIME_SYSTEM    = UTC
MEAN_ELEMENT_THEORY = SGP/SGP4

EPOCH          = 2026-01-12T03:40:29.142048
MEAN_MOTION    = 14.16592162
ECCENTRICITY   = .00085094
INCLINATION    = 71.0026
RA_OF_ASC_NODE = 259.5766
ARG_OF_PERICENTER = 327.3845
MEAN_ANOMALY   = 144.2068

EPHEMERIS_TYPE = 0
CLASSIFICATION_TYPE = U
NORAD_CAT_ID   = 16182
ELEMENT_SET_NO = 999
REV_AT_EPOCH   = 7922
BSTAR          = .6941833E-4
MEAN_MOTION_DOT = .91E-6
MEAN_MOTION_DDOT = 0

CCSDS_OMM_VERS = 2.0
CREATION_DATE  = 
ORIGINATOR     = 

OBJECT_NAME    = SL-14 R/B
OBJECT_ID      = 1986-006B
CENTER_NAME    = EARTH
REF_FRAME      = TEME
TIME_SYSTEM    = UTC
MEAN_ELEMENT_THEORY = SGP/SGP4

EPOCH          = 2026-01-12T01:18:48.356640
MEAN_MOTION    = 14.86719003
ECCENTRICITY   = .00782719
INCLINATION    = 82.5288
RA_OF_ASC_NODE = 313.0295
ARG_OF_PERICENTER = 100.1987
MEAN_ANOMALY   = 260.8069

EPHEMERIS_TYPE = 0
CLASSIFICATION_TYPE = U
NORAD_CAT_ID   = 16496
ELEMENT_SET_NO = 999
REV_AT_EPOCH   = 14079
BSTAR          = .76252944E-4
MEAN_MOTION_DOT = .745E-5
MEAN_MOTION_DDOT = 0

CCSDS_OMM_VERS = 2.0
CREATION_DATE  = 
ORIGINATOR     = 

OBJECT_NAME    = COSMOS 1743
OBJECT_ID      = 1986-034A
CENTER_NAME    = EARTH
REF_FRAME      = TEME
TIME_SYSTEM    = UTC
MEAN_ELEMENT_THEORY = SGP/SGP4

EPOCH          = 2026-01-12T07:43:54.564384
MEAN_MOTION    = 15.54282538
ECCENTRICITY   = .00052345
INCLINATION    = 82.5348
RA_OF_ASC_NODE = 132.7798
ARG_OF_PERICENTER = 136.3324
MEAN_ANOMALY   = 223.8344

EPHEMERIS_TYPE = 0
CLASSIFICATION_TYPE = U
NORAD_CAT_ID   = 16719
ELEMENT_SET_NO = 999
REV_AT_EPOCH   = 17148
BSTAR          = .50462232E-3
MEAN_MOTION_DOT = .33083E-3
MEAN_MOTION_DDOT = 0

